0 OPS 9316 (IDSCS 6)
1 02220U 66053G   13279.59528166 -.00000076  00000-0  10000-3 0  9325
2 02220 000.7717 356.4356 0067068 132.3244 231.8659 01.07156495 89377
0 OPS 9316 (IDSCS 6)
1 02220U 66053G   13280.52847635 -.00000055  00000-0  10000-3 0  9333
2 02220 000.7758 354.7357 0067319 133.7542 232.1332 01.07155888 89387
0 OPS 9316 (IDSCS 6)
1 02220U 66053G   13283.32129137  .00000000  00000-0  10000-3 0  9355
2 02220 000.7710 358.2083 0066536 131.0545 228.7376 01.07153539 89407
0 OPS 9316 (IDSCS 6)
1 02220U 66053G   13283.32806996 -.00000116  00000-0  10000-3 0  9348
2 02220 000.7762 354.9975 0067258 133.7550 231.8718 01.07156915 89411
0 OPS 9316 (IDSCS 6)
1 02220U 66053G   13287.99399407 -.00000079  00000-0  10000-3 0  9358
2 02220 000.7741 356.5404 0067070 132.5623 231.5049 01.07155972 89464
0 OPS 9316 (IDSCS 6)
1 02220U 66053G   13288.27690672 -.00000077  00000-0  10000-3 0  9367
2 02220 000.7762 355.9442 0067051 133.1462 340.6565 01.07155933 89461
0 OPS 9316 (IDSCS 6)
1 02220U 66053G   13288.92720153 -.00000080  00000-0  10000-3 0  9372
2 02220 000.7746 356.5422 0067042 132.6706 231.3973 01.07155994 89470
0 OPS 9316 (IDSCS 6)
1 02220U 66053G   13289.85534084  .00000000  00000-0  10000-3 0  9394
2 02220 000.7721 359.1162 0066334 130.3234 229.2190 01.07153214 89477
0 OPS 9316 (IDSCS 6)
1 02220U 66053G   13292.65997210 -.00000136  00000-0  10000-3 0  9380
2 02220 000.7768 356.6021 0066975 132.6735 231.3357 01.07157086 89511
